ONEWEB-0206             
1 48227U 21031T   22239.88485839  .00000072  00000+0  15980-3 0  9995
2 48227  87.9033 205.7743 0001741  84.6386 275.4942 13.14500326 65707
ONEWEB-0182             
1 48228U 21031U   22239.87850836  .00000018  00000+0  15129-4 0  9994
2 48228  87.9078 205.8955 0001711  81.2972 278.8352 13.14504419 65916
ONEWEB-0186             
1 48229U 21031V   22239.89118609  .00000126  00000+0  30459-3 0  9994
2 48229  87.9049 205.8069 0001862  75.0487 285.0849 13.14504411 65867
ONEWEB-0181             
1 48230U 21031W   22239.63959459 -.00000183  00000+0 -52846-3 0  9993
2 48230  87.9065 205.9228 0002040  78.7433 281.3926 13.14501200 65683
ONEWEB-0188             
1 48231U 21031X   22239.90811549  .00000146  00000+0  36045-3 0  9991
2 48231  87.9073 205.8718 0001815  80.7833 279.3502 13.14500909 65628
ONEWEB-0220             
1 48232U 21031Y   22239.64170228 -.00000229  00000+0 -65269-3 0  9999
2 48232  87.9042 205.8332 0001627  72.4490 287.6818 13.14499667 65850
ONEWEB-0165             
1 48233U 21031Z   22240.43248463  .00000300  00000+0  77418-3 0  9993
2 48233  87.9064 205.7500 0001751  75.9836 284.1488 13.14501368 65915
ONEWEB-0199             
1 48234U 21031AA  22240.41555853 -.00000035  00000+0 -12764-3 0  9996
2 48234  87.9053 205.7308 0001889  78.1732 281.9609 13.14505532 65818
ONEWEB-0203             
1 48235U 21031AB  22239.87217539 -.00000077  00000+0 -24211-3 0  9997
2 48235  87.9071 205.8318 0002497  75.7232 284.4175 13.14503291 65754
ONEWEB-0197             
1 48236U 21031AC  22240.46843162 -.00000230  00000+0 -65513-3 0  9993
2 48236  87.9059 205.7248 0001981  78.5482 281.5871 13.14504317 65747
ONEWEB-0194             
1 48237U 21031AD  22239.90389859  .00000378  00000+0  98639-3 0  9995
2 48237  87.9053 205.8268 0002540  81.6668 278.4749 13.14503010 65847
ONEWEB-0193             
1 48238U 21031AE  22239.92081245 -.00000046  00000+0 -15857-3 0  9991
2 48238  87.9062 205.8339 0002155  74.0310 286.1057 13.14501180 65797
ONEWEB-0191             
1 48239U 21031AF  22240.46420383 -.00000226  00000+0 -64488-3 0  9997
2 48239  87.9049 205.7092 0002224  78.6960 281.4419 13.14501603 65729
ONEWEB-0195             
1 48240U 21031AG  22239.90918743  .00000102  00000+0  24038-3 0  9996
2 48240  87.9051 205.8108 0001916  63.8439 296.2887 13.14500433 65630
ONEWEB-0201             
1 48241U 21031AH  22240.20943126  .00000210  00000+0  53065-3 0  9997
2 48241  87.9065 205.7934 0001959  81.6305 278.5047 13.14501467 65908
ONEWEB-0207             
1 48242U 21031AJ  22239.88062012  .00000051  00000+0  10422-3 0  9999
2 48242  87.9048 205.8257 0001815  89.4151 270.7186 13.14503384 65778
ONEWEB-0208             
1 48243U 21031AK  22240.16185233 -.00000330  00000+0 -92587-3 0  9998
2 48243  87.9042 205.7425 0001970  67.0642 293.0695 13.14499721 65826
ONEWEB-0200             
1 48244U 21031AL  22239.89754517  .00000176  00000+0  43975-3 0  9997
2 48244  87.9045 205.7862 0001939  66.3003 293.8330 13.14499446 65719
ONEWEB-0217             
1 48245U 21031AM  22240.44727786  .00000163  00000+0  40423-3 0  9990
2 48245  87.9051 205.7043 0001905  64.9861 295.1467 13.14499557 65749
PLEIADES NEO 3          
1 48268U 21034A   22240.31289214 -.00000351  00000+0 -37980-4 0  9999
2 48268  97.8927 314.0084 0001313  86.5804 273.5543 14.81669615 71993
LEMUR-2-AMANDA-SVANTE   
1 48269U 21034B   22240.16343214  .00002122  00000+0  23840-3 0  9999
2 48269  97.7441 309.7231 0003423 175.4202 184.7046 14.87758709 72196
AII-BRAVO               
1 48270U 21034C   22240.16718618  .00000945  00000+0  11231-3 0  9997
2 48270  97.7430 309.3753 0003820 173.9798 186.1465 14.86686842 72182
TYVAK-182A              
1 48271U 21034D   22239.42385885  .00000888  00000+0  10474-3 0  9995
2 48271  97.7431 308.9680 0000983 204.1366 155.9804 14.87153070 72086
NORSAT 3                
1 48272U 21034E   22240.30400479  .00000816  00000+0  95792-4 0  9990
2 48272  97.7443 310.1162 0000964  57.4950 302.6372 14.87538243 72245
LEMUR-2-SPECIAL-K       
1 48273U 21034F   22240.50854395  .00002178  00000+0  24472-3 0  9992
2 48273  97.7441 310.0384 0003584 170.3063 189.8223 14.87741442 72258
CSS (TIANHE)            
1 48274U 21035A   22240.61164688  .00012937  00000+0  14792-3 0  9993
2 48274  41.4715 137.7842 0005209 210.2476 219.7007 15.61929948 76091
STARLINK-2567           
1 48276U 21036A   22239.95608006  .00001875  00000+0  14469-3 0  9998
2 48276  53.0551  76.4659 0001698  83.3197 276.7986 15.06406530 74994
STARLINK-2569           
1 48277U 21036B   22239.82477961  .00001775  00000+0  13809-3 0  9995
2 48277  53.0557  42.0565 0001522 104.7179 255.3979 15.06382367 74884
STARLINK-2543           
1 48278U 21036C   22239.59671548 -.00002021  00000+0 -11685-3 0  9994
2 48278  53.0548  58.1393 0001374  77.0464 283.0679 15.06392812 74630
STARLINK-2580           
1 48279U 21036D   22239.92107421 -.00000034  00000+0  16630-4 0  9993
2 48279  53.0542  56.6213 0001505  75.0683 285.0472 15.06397029 75264
STARLINK-2565           
1 48280U 21036E   22240.11365288 -.00000345  00000+0 -42414-5 0  9991
2 48280  53.0547 125.7570 0001649  79.6576 280.4599 15.06402899 74311
STARLINK-2520           
1 48281U 21036F   22239.99386239  .00000526  00000+0  54176-4 0  9991
2 48281  53.0533 106.2896 0001454  82.4181 277.6973 15.06401909 74573
STARLINK-2558           
1 48282U 21036G   22240.34909076  .00001539  00000+0  12217-3 0  9997
2 48282  53.0552 109.7054 0001483  89.0732 271.0427 15.06409699 74561
STARLINK-2516           
1 48283U 21036H   22240.08002281  .00000581  00000+0  57898-4 0  9992
2 48283  53.0534 110.9091 0001269  81.4688 278.6445 15.06395200 74526
STARLINK-2564           
1 48284U 21036J   22240.07633937  .00000296  00000+0  38791-4 0  9994
2 48284  53.0553 110.9161 0001334  87.4778 272.6363 15.06400101 74514
STARLINK-2548           
1 48285U 21036K   22239.87266038  .00001117  00000+0  93840-4 0  9994
2 48285  53.0544 111.8288 0001494  83.0267 277.0892 15.06406795 74484
STARLINK-2547           
1 48286U 21036L   22239.86992186 -.00000065  00000+0  14516-4 0  9999
2 48286  53.0549 111.8595 0001517  88.6286 271.4877 15.06406870 73900
STARLINK-2566           
1 48287U 21036M   22239.93259000  .00001149  00000+0  96042-4 0  9996
2 48287  53.0554 111.5734 0001607  75.6477 284.4691 15.06395482 74496
STARLINK-2562           
1 48288U 21036N   22240.06064235  .00000874  00000+0  77573-4 0  9999
2 48288  53.0558 110.9814 0001583  80.7511 279.3657 15.06408648 74519
STARLINK-2545           
1 48289U 21036P   22239.92520788 -.00000274  00000+0  48360-6 0  9992
2 48289  53.0555 111.5956 0001696  75.5021 284.6156 15.06407976 74497
STARLINK-2540           
1 48290U 21036Q   22239.92152718  .00000762  00000+0  70044-4 0  9991
2 48290  53.0532 111.6121 0001551  86.1108 274.0058 15.06403145 74491
STARLINK-2555           
1 48291U 21036R   22240.05053292  .00001539  00000+0  12217-3 0  9995
2 48291  53.0533 111.0304 0001757  76.4901 283.6283 15.06409429 74511
STARLINK-2542           
1 48292U 21036S   22239.06641440  .00000619  00000+0  60473-4 0  9999
2 48292  53.0556 115.6307 0001765  72.9803 287.1379 15.06400950 73784
STARLINK-2550           
1 48293U 21036T   22239.91046940  .00001527  00000+0  12139-3 0  9992
2 48293  53.0529 111.6731 0001845  77.9308 282.1887 15.06404676 73919
STARLINK-2533           
1 48294U 21036U   22239.90679232  .00002595  00000+0  19314-3 0  9996
2 48294  53.0540 111.6827 0001659  73.6447 286.4724 15.06380189 73918
STARLINK-2535           
1 48295U 21036V   22240.03579219  .00001162  00000+0  96875-4 0  9994
2 48295  53.0560 111.1100 0001592  82.7032 277.4138 15.06404135 74511
STARLINK-2546           
1 48296U 21036W   22240.36383905  .00000273  00000+0  37200-4 0  9995
2 48296  53.0548 109.6357 0001348  78.5877 281.5264 15.06402460 74563
STARLINK-2544           
1 48297U 21036X   22239.89572280  .00001897  00000+0  14619-3 0  9999
2 48297  53.0544 111.7268 0001711  70.1186 289.9988 15.06405310 73910
STARLINK-2559           
1 48298U 21036Y   22240.02473577  .00000196  00000+0  32064-4 0  9992
2 48298  53.0549 111.1578 0001408  80.9122 279.2026 15.06400274 74512
STARLINK-2557           
1 48299U 21036Z   22240.35277973  .00001389  00000+0  11210-3 0  9995
2 48299  53.0547 109.6718 0001756  81.3533 278.7655 15.06408127 74568
STARLINK-2538           
1 48300U 21036AA  22240.07909640  .00000833  00000+0  74798-4 0  9994
2 48300  53.0529 120.8982 0001486  78.1189 281.9966 15.06404496 74386
STARLINK-2537           
1 48301U 21036AB  22239.87637096  .00001143  00000+0  95608-4 0  9992
2 48301  53.0543 121.8215 0001542  88.5793 271.5373 15.06402290 73760
STARLINK-2556           
1 48302U 21036AC  22239.87269066 -.00002440  00000+0 -14492-3 0  9995
2 48302  53.0556 121.8241 0001615  67.7907 292.3254 15.06415575 73760
STARLINK-2530           
1 48303U 21036AD  22239.93440137  .00000653  00000+0  62736-4 0  9990
2 48303  53.0547 121.5500 0001619  78.6156 281.5015 15.06409583 74361
STARLINK-2524           
1 48304U 21036AE  22240.06435479  .00000473  00000+0  50672-4 0  9996
2 48304  53.0538 120.9716 0001701  77.9039 282.2141 15.06409258 74387
STARLINK-2519           
1 48305U 21036AF  22240.05972115  .00000849  00000+0  75862-4 0  9994
2 48305  53.0558 120.9964 0001647  80.5173 279.6002 15.06411126 74386
STARLINK-2523           
1 48306U 21036AG  22240.05698207  .00001057  00000+0  89835-4 0  9999
2 48306  53.0547 121.0080 0001577  71.1748 288.9411 15.06407629 74382
STARLINK-2528           
1 48307U 21036AH  22240.05329767  .00000514  00000+0  53396-4 0  9992
2 48307  53.0544 121.0312 0001553  81.0472 279.0693 15.06406121 74385
STARLINK-2532           
1 48308U 21036AJ  22240.11596103  .00000221  00000+0  33750-4 0  9997
2 48308  53.0543 120.7408 0001642  67.6604 292.4558 15.06403830 74397
